{"type": "FeatureCollection", "features": [ {"type": "Feature", "properties": {"norad_id": 41836, "name": "HIMAWARI-9", "group": "weather", "lat": 0.020802695939470425, "lon": 2.071685718060289, "alt_km": 35785.05133520653, "timestamp": "2025-12-17T09:00:16.788000+00:00", "meta": {"OBJECT_NAME": "HIMAWARI-9", "OBJECT_ID": "2016-064A", "EPOCH": "2025-12-16T14:01:33.494016", "MEAN_MOTION": 1.00269191, "ECCENTRICITY": 9.983e-05, "INCLINATION": 0.0171, "RA_OF_ASC_NODE": 275.3759, "ARG_OF_PERICENTER": 22.8561, "MEAN_ANOMALY": 138.3893, "EPHEMERIS_TYPE": 0, "CLASSIFICATION_TYPE": "U", "NORAD_CAT_ID": 41836, "ELEMENT_SET_NO": 999, "REV_AT_EPOCH": 3337, "BSTAR": 0, "MEAN_MOTION_DOT": -2.51e-06, "MEAN_MOTION_DDOT": 0}, "tle": {"line1": "1 41836U 16064A   25350.58441544 -.00000251  00000+0  00000+0 0  9996", "line2": "2 41836   0.0171 275.3759 0000998  22.8561 138.3893  1.00269191 33371"}}, "geometry": {"type": "Point", "coordinates": [2.071685718060289, 0.020802695939470425]}}, {"type": "Feature", "properties": {"norad_id": 41866, "name": "GOES 16", "group": "weather", "lat": 0.03843029745759818, "lon": 116.61634735295321, "alt_km": 35797.033102513036, "timestamp": "2025-12-17T09:00:16.788013+00:00", "meta": {"OBJECT_NAME": "GOES 16", "OBJECT_ID": "2016-071A", "EPOCH": "2025-12-16T16:16:59.254176", "MEAN_MOTION": 1.00271844, "ECCENTRICITY": 0.00030459, "INCLINATION": 0.0729, "RA_OF_ASC_NODE": 102.6701, "ARG_OF_PERICENTER": 162.1995, "MEAN_ANOMALY": 320.2671, "EPHEMERIS_TYPE": 0, "CLASSIFICATION_TYPE": "U", "NORAD_CAT_ID": 41866, "ELEMENT_SET_NO": 999, "REV_AT_EPOCH": 3327, "BSTAR": 0, "MEAN_MOTION_DOT": -6.7e-07, "MEAN_MOTION_DDOT": 0}, "tle": {"line1": "1 41866U 16071A   25350.67846359 -.00000067  00000+0  00000+0 0  9995", "line2": "2 41866   0.0729 102.6701 0003045 162.1995 320.2671  1.00271844 33270"}}, "geometry": {"type": "Point", "coordinates": [116.61634735295321, 0.03843029745759818]}}, {"type": "Feature", "properties": {"norad_id": 41882, "name": "FENGYUN 4A", "group": "weather", "lat": -1.8460908001839127, "lon": -14.860609069003916, "alt_km": 35796.64462722474, "timestamp": "2025-12-17T09:00:16.788025+00:00", "meta": {"OBJECT_NAME": "FENGYUN 4A", "OBJECT_ID": "2016-077A", "EPOCH": "2025-12-16T20:47:41.500320", "MEAN_MOTION": 1.00267969, "ECCENTRICITY": 0.00045475, "INCLINATION": 1.8596, "RA_OF_ASC_NODE": 82.3532, "ARG_OF_PERICENTER": 143.9569, "MEAN_ANOMALY": 295.1544, "EPHEMERIS_TYPE": 0, "CLASSIFICATION_TYPE": "U", "NORAD_CAT_ID": 41882, "ELEMENT_SET_NO": 999, "REV_AT_EPOCH": 3310, "BSTAR": 0, "MEAN_MOTION_DOT": -3.34e-06, "MEAN_MOTION_DDOT": 0}, "tle": {"line1": "1 41882U 16077A   25350.86645255 -.00000334  00000+0  00000+0 0  9999", "line2": "2 41882   1.8596  82.3532 0004547 143.9569 295.1544  1.00267969 33101"}}, "geometry": {"type": "Point", "coordinates": [-14.860609069003916, -1.8460908001839127]}}, {"type": "Feature", "properties": {"norad_id": 41884, "name": "CYGFM05", "group": "weather", "lat": -24.40198303171493, "lon": -23.641941865610423, "alt_km": 424.4113269733016, "timestamp": "2025-12-17T09:00:16.788037+00:00", "meta": {"OBJECT_NAME": "CYGFM05", "OBJECT_ID": "2016-078A", "EPOCH": "2025-12-16T19:16:17.827104", "MEAN_MOTION": 15.47787701, "ECCENTRICITY": 0.00106122, "INCLINATION": 34.9606, "RA_OF_ASC_NODE": 20.5861, "ARG_OF_PERICENTER": 219.7107, "MEAN_ANOMALY": 140.2838, "EPHEMERIS_TYPE": 0, "CLASSIFICATION_TYPE": "U", "NORAD_CAT_ID": 41884, "ELEMENT_SET_NO": 999, "REV_AT_EPOCH": 50039, "BSTAR": 0.00031112713, "MEAN_MOTION_DOT": 0.00016662, "MEAN_MOTION_DDOT": 0}, "tle": {"line1": "1 41884U 16078A   25350.80298411  .00016662  00000+0  31113-3 0  9997", "line2": "2 41884  34.9606  20.5861 0010612 219.7107 140.2838 15.47787701500394"}}, "geometry": {"type": "Point", "coordinates": [-23.641941865610423, -24.40198303171493]}}, {"type": "Feature", "properties": {"norad_id": 41885, "name": "CYGFM04", "group": "weather", "lat": -29.368027694314414, "lon": -134.78623379545508, "alt_km": 410.44276884593273, "timestamp": "2025-12-17T09:00:16.788048+00:00", "meta": {"OBJECT_NAME": "CYGFM04", "OBJECT_ID": "2016-078B", "EPOCH": "2025-12-16T10:20:43.990080", "MEAN_MOTION": 15.50515269, "ECCENTRICITY": 0.00097252, "INCLINATION": 34.9357, "RA_OF_ASC_NODE": 357.6863, "ARG_OF_PERICENTER": 242.1046, "MEAN_ANOMALY": 117.8692, "EPHEMERIS_TYPE": 0, "CLASSIFICATION_TYPE": "U", "NORAD_CAT_ID": 41885, "ELEMENT_SET_NO": 999, "REV_AT_EPOCH": 50051, "BSTAR": 0.00031804069, "MEAN_MOTION_DOT": 0.00018758, "MEAN_MOTION_DDOT": 0}, "tle": {"line1": "1 41885U 16078B   25350.43106470  .00018758  00000+0  31804-3 0  9995", "line2": "2 41885  34.9357 357.6863 0009725 242.1046 117.8692 15.50515269500513"}}, "geometry": {"type": "Point", "coordinates": [-134.78623379545508, -29.368027694314414]}}, {"type": "Feature", "properties": {"norad_id": 41886, "name": "CYGFM02", "group": "weather", "lat": -34.75823095866537, "lon": -93.86189677805639, "alt_km": 406.0885765325329, "timestamp": "2025-12-17T09:00:16.788058+00:00", "meta": {"OBJECT_NAME": "CYGFM02", "OBJECT_ID": "2016-078C", "EPOCH": "2025-12-16T10:12:37.362816", "MEAN_MOTION": 15.51905682, "ECCENTRICITY": 0.00114072, "INCLINATION": 34.9445, "RA_OF_ASC_NODE": 356.0013, "ARG_OF_PERICENTER": 242.1395, "MEAN_ANOMALY": 117.8172, "EPHEMERIS_TYPE": 0, "CLASSIFICATION_TYPE": "U", "NORAD_CAT_ID": 41886, "ELEMENT_SET_NO": 999, "REV_AT_EPOCH": 50064, "BSTAR": 0.00032556405, "MEAN_MOTION_DOT": 0.00020205, "MEAN_MOTION_DDOT": 0}, "tle": {"line1": "1 41886U 16078C   25350.42543244  .00020205  00000+0  32556-3 0  9994", "line2": "2 41886  34.9445 356.0013 0011407 242.1395 117.8172 15.51905682500649"}}, "geometry": {"type": "Point", "coordinates": [-93.86189677805639, -34.75823095866537]}}, {"type": "Feature", "properties": {"norad_id": 41887, "name": "CYGFM01", "group": "weather", "lat": 4.425609883839671, "lon": 25.52845030768738, "alt_km": 425.7207479837771, "timestamp": "2025-12-17T09:00:16.788069+00:00", "meta": {"OBJECT_NAME": "CYGFM01", "OBJECT_ID": "2016-078D", "EPOCH": "2025-12-16T19:02:41.335008", "MEAN_MOTION": 15.48371848, "ECCENTRICITY": 0.00101659, "INCLINATION": 34.9438, "RA_OF_ASC_NODE": 22.969, "ARG_OF_PERICENTER": 212.0114, "MEAN_ANOMALY": 147.999, "EPHEMERIS_TYPE": 0, "CLASSIFICATION_TYPE": "U", "NORAD_CAT_ID": 41887, "ELEMENT_SET_NO": 999, "REV_AT_EPOCH": 50033, "BSTAR": 0.0003105455, "MEAN_MOTION_DOT": 0.00016974, "MEAN_MOTION_DDOT": 0}, "tle": {"line1": "1 41887U 16078D   25350.79353397  .00016974  00000+0  31055-3 0  9994", "line2": "2 41887  34.9438  22.9690 0010165 212.0114 147.9990 15.48371848500332"}}, "geometry": {"type": "Point", "coordinates": [25.52845030768738, 4.425609883839671]}}, {"type": "Feature", "properties": {"norad_id": 41888, "name": "CYGFM08", "group": "weather", "lat": 33.81115596345599, "lon": 75.64755955388685, "alt_km": 419.3559999191202, "timestamp": "2025-12-17T09:00:16.788080+00:00", "meta": {"OBJECT_NAME": "CYGFM08", "OBJECT_ID": "2016-078E", "EPOCH": "2025-12-16T11:01:46.701984", "MEAN_MOTION": 15.49574229, "ECCENTRICITY": 0.0011879, "INCLINATION": 34.9468, "RA_OF_ASC_NODE": 8.1021, "ARG_OF_PERICENTER": 231.9734, "MEAN_ANOMALY": 127.9916, "EPHEMERIS_TYPE": 0, "CLASSIFICATION_TYPE": "U", "NORAD_CAT_ID": 41888, "ELEMENT_SET_NO": 999, "REV_AT_EPOCH": 50051, "BSTAR": 0.00032230052, "MEAN_MOTION_DOT": 0.000184, "MEAN_MOTION_DDOT": 0}, "tle": {"line1": "1 41888U 16078E   25350.45956831  .00018400  00000+0  32230-3 0  9992", "line2": "2 41888  34.9468   8.1021 0011879 231.9734 127.9916 15.49574229500516"}}, "geometry": {"type": "Point", "coordinates": [75.64755955388685, 33.81115596345599]}}, {"type": "Feature", "properties": {"norad_id": 41890, "name": "CYGFM07", "group": "weather", "lat": 33.378514336479796, "lon": 61.68720151841024, "alt_km": 416.82914009957403, "timestamp": "2025-12-17T09:00:16.788091+00:00", "meta": {"OBJECT_NAME": "CYGFM07", "OBJECT_ID": "2016-078G", "EPOCH": "2025-12-16T11:02:55.401216", "MEAN_MOTION": 15.50160123, "ECCENTRICITY": 0.00101456, "INCLINATION": 34.9485, "RA_OF_ASC_NODE": 357.0563, "ARG_OF_PERICENTER": 247.5828, "MEAN_ANOMALY": 112.382, "EPHEMERIS_TYPE": 0, "CLASSIFICATION_TYPE": "U", "NORAD_CAT_ID": 41890, "ELEMENT_SET_NO": 999, "REV_AT_EPOCH": 50053, "BSTAR": 0.00032713279, "MEAN_MOTION_DOT": 0.00019056, "MEAN_MOTION_DDOT": 0}, "tle": {"line1": "1 41890U 16078G   25350.46036344  .00019056  00000+0  32713-3 0  9998", "line2": "2 41890  34.9485 357.0563 0010145 247.5828 112.3820 15.50160123500537"}}, "geometry": {"type": "Point", "coordinates": [61.68720151841024, 33.378514336479796]}}, {"type": "Feature", "properties": {"norad_id": 41891, "name": "CYGFM03", "group": "weather", "lat": -34.86979363344557, "lon": -100.67764493575564, "alt_km": 412.56427799319863, "timestamp": "2025-12-17T09:00:16.788102+00:00", "meta": {"OBJECT_NAME": "CYGFM03", "OBJECT_ID": "2016-078H", "EPOCH": "2025-12-16T10:13:06.845952", "MEAN_MOTION": 15.50055512, "ECCENTRICITY": 0.00095884, "INCLINATION": 34.9438, "RA_OF_ASC_NODE": 359.2043, "ARG_OF_PERICENTER": 235.346, "MEAN_ANOMALY": 124.6359, "EPHEMERIS_TYPE": 0, "CLASSIFICATION_TYPE": "U", "NORAD_CAT_ID": 41891, "ELEMENT_SET_NO": 999, "REV_AT_EPOCH": 50050, "BSTAR": 0.00031705285, "MEAN_MOTION_DOT": 0.00018393, "MEAN_MOTION_DDOT": 0}, "tle": {"line1": "1 41891U 16078H   25350.42577368  .00018393  00000+0  31705-3 0  9994", "line2": "2 41891  34.9438 359.2043 0009588 235.3460 124.6359 15.50055512500504"}}, "geometry": {"type": "Point", "coordinates": [-100.67764493575564, -34.86979363344557]}}]}